OBJECT_NAME,OBJECT_ID,EPOCH,MEAN_MOTION,ECCENTRICITY,INCLINATION,RA_OF_ASC_NODE,ARG_OF_PERICENTER,MEAN_ANOMALY,EPHEMERIS_TYPE,CLASSIFICATION_TYPE,NORAD_CAT_ID,ELEMENT_SET_NO,REV_AT_EPOCH,BSTAR,MEAN_MOTION_DOT,MEAN_MOTION_DDOT
STARLINK-35445,2025-223AC,2026-07-17T00:49:11.368704,15.34403176,.0001309,53.1592,51.6221,93.5262,266.5890,0,U,65880,999,4403,.38387E-3,.12617E-3,0
STARLINK-35464,2025-223AD,2026-07-17T00:24:56.867904,15.34402788,.0001178,53.1579,51.5161,98.4213,261.6923,0,U,65881,999,4403,.3423E-3,.11207E-3,0
STARLINK-35270,2025-224A,2026-07-17T04:10:33.602592,15.34399087,.000164,53.1574,127.4565,92.9145,267.2045,0,U,65882,999,4468,.32714E-3,.10692E-3,0
STARLINK-35367,2025-224B,2026-07-16T20:03:23.488128,15.34390796,.0001295,53.1578,128.8966,109.2598,250.8545,0,U,65883,999,4463,.10543E-3,.3186E-4,0
STARLINK-35384,2025-224C,2026-07-17T00:00:02.000160,15.30218333,.0001434,53.1595,130.8030,86.0498,183.5748,0,U,65884,999,588,-.75913E-3,-.22787E-3,0
STARLINK-35415,2025-224D,2026-07-16T21:28:06.436416,15.34393698,.0002061,53.1589,128.5481,112.6318,247.4902,0,U,65885,999,4459,.46097E-3,.15227E-3,0
STARLINK-35413,2025-224E,2026-07-16T05:44:05.284320,15.34393927,.0001462,53.1592,131.5692,95.7537,264.3632,0,U,65886,999,4449,.15409E-3,.4832E-4,0
STARLINK-35332,2025-224F,2026-07-16T05:31:58.355328,15.34415980,.0001378,53.1578,131.5139,122.4340,237.6796,0,U,65887,999,4457,.1041E-2,.34979E-3,0
STARLINK-35362,2025-224G,2026-07-17T03:42:24.054048,15.30209676,.0000993,53.1596,130.1681,100.9952,259.1160,0,U,65888,999,4464,.38909E-3,.11185E-3,0
STARLINK-35193,2025-224H,2026-07-16T05:59:20.668992,15.30174485,.0000952,53.1579,134.4630,73.5060,286.6045,0,U,65889,999,4453,-.1148E-3,-.3755E-4,0
STARLINK-34542,2025-224J,2026-07-16T05:54:46.550304,15.30208259,.0000677,53.1584,134.4553,90.0423,270.0655,0,U,65890,999,4455,.25248E-3,.7128E-4,0
STARLINK-34791,2025-224K,2026-07-17T00:00:02.000160,15.30229260,.0001192,53.1571,131.0484,92.6204,49.0197,0,U,65891,999,578,-.89791E-3,-.26881E-3,0
STARLINK-34853,2025-224L,2026-07-16T20:12:29.492064,15.34407870,.0002183,53.1574,128.9359,85.7598,274.3654,0,U,65892,999,4461,.47346E-3,.15658E-3,0
STARLINK-34921,2025-224M,2026-07-16T05:50:12.912000,15.30202924,.0001272,53.1577,134.4227,102.3528,257.7615,0,U,65893,999,4455,.2415E-3,.6801E-4,0
STARLINK-34672,2025-224N,2026-07-16T05:39:34.645824,15.30209290,.0001255,53.1590,134.3779,81.6724,278.4419,0,U,65894,999,4455,.24612E-3,.6939E-4,0
STARLINK-34898,2025-224P,2026-07-16T04:40:35.321664,15.34403336,.000105,53.1576,131.9983,81.6703,278.4419,0,U,65895,999,4458,.62049E-3,.20648E-3,0
STARLINK-34906,2025-224Q,2026-07-17T04:40:46.259040,15.31704984,.0001788,53.1600,128.9912,90.0250,270.0956,0,U,65896,999,4471,.28754E-3,.8569E-4,0
STARLINK-34934,2025-224R,2026-07-16T05:56:12.111360,15.34398074,.0001321,53.1578,131.6114,108.8794,251.2352,0,U,65897,999,4454,.17707E-3,.561E-4,0
STARLINK-34936,2025-224S,2026-07-16T20:09:27.913824,15.34396918,.0001438,53.1582,128.9119,84.1067,276.0100,0,U,65898,999,4468,.50316E-3,.1666E-3,0
STARLINK-35272,2025-224T,2026-07-16T05:41:03.396768,15.34395347,.0001362,53.1581,131.5459,93.8765,266.2393,0,U,65899,999,4458,.25695E-3,.8314E-4,0
STARLINK-35264,2025-224U,2026-07-16T05:34:59.561184,15.34405713,.000118,53.1583,131.5197,88.2029,271.9109,0,U,65900,999,4458,.25679E-3,.8311E-4,0
STARLINK-35249,2025-224V,2026-07-16T05:42:35.748000,15.30230339,.0001281,53.1592,134.3870,88.6624,271.4524,0,U,65901,999,4453,.42155E-3,.12158E-3,0
STARLINK-35278,2025-224W,2026-07-16T05:57:50.697216,15.30197462,.0001654,53.1583,134.4549,106.6084,253.5098,0,U,65902,999,4455,.37364E-3,.10722E-3,0
STARLINK-35210,2025-224X,2026-07-16T20:17:58.226784,15.30217903,.0002791,53.1584,131.7803,103.1305,257.0007,0,U,65903,999,4462,.40427E-3,.1164E-3,0
STARLINK-35348,2025-224Y,2026-07-16T19:51:16.832160,15.34394957,.0001538,53.1585,128.8312,95.2242,264.8936,0,U,65904,999,4463,.36952E-3,.12127E-3,0
STARLINK-35380,2025-224Z,2026-07-16T19:35:25.352160,15.30218987,.0002297,53.1607,131.5967,99.7967,260.3293,0,U,65905,999,4459,.27964E-3,.7936E-4,0
STARLINK-35385,2025-224AA,2026-07-16T20:06:25.615008,15.34397756,.0001753,53.1569,128.8972,93.0974,267.0229,0,U,65906,999,4466,.41679E-3,.1373E-3,0
STARLINK-35347,2025-224AB,2026-07-16T19:57:20.239200,15.34398035,.0001632,53.1579,128.8566,104.8603,255.2581,0,U,65907,999,4466,.32239E-3,.10531E-3,0
STARLINK-35329,2025-224AC,2026-07-16T12:26:32.519616,15.34396096,.0002092,53.1569,130.4596,80.5927,279.5312,0,U,65908,999,4462,.21678E-3,.6954E-4,0
STARLINK-35387,2025-224AD,2026-07-16T12:21:38.540160,15.30216342,.0001209,53.1577,133.2726,87.3780,272.7359,0,U,65909,999,4454,.36586E-3,.10497E-3,0
