[ {"name": "STARLINK-35445", "line1": "1 65880U 25223AC  26198.03415936  .00012617  00000+0  38387-3 0  9996", "line2": "2 65880  53.1592  51.6221 0001309  93.5262 266.5890 15.34403176 44032"}, {"name": "STARLINK-35464", "line1": "1 65881U 25223AD  26198.01732486  .00011207  00000+0  34230-3 0  9994", "line2": "2 65881  53.1579  51.5161 0001178  98.4213 261.6923 15.34402788 44035"}, {"name": "STARLINK-35270", "line1": "1 65882U 25224A   26198.17400003  .00010692  00000+0  32714-3 0  9992", "line2": "2 65882  53.1574 127.4565 0001640  92.9145 267.2045 15.34399087 44684"}, {"name": "STARLINK-35367", "line1": "1 65883U 25224B   26197.83568852  .00003186  00000+0  10543-3 0  9998", "line2": "2 65883  53.1578 128.8966 0001295 109.2598 250.8545 15.34390796 44635"}, {"name": "STARLINK-35384", "line1": "1 65884U 25224C   26198.00002315 -.00022787  00000+0 -75913-3 0  9998", "line2": "2 65884  53.1595 130.8030 0001434  86.0498 183.5748 15.30218333  5889"}, {"name": "STARLINK-35415", "line1": "1 65885U 25224D   26197.89451894  .00015227  00000+0  46097-3 0  9995", "line2": "2 65885  53.1589 128.5481 0002061 112.6318 247.4902 15.34393698 44596"}, {"name": "STARLINK-35413", "line1": "1 65886U 25224E   26197.23895005  .00004832  00000+0  15409-3 0  9993", "line2": "2 65886  53.1592 131.5692 0001462  95.7537 264.3632 15.34393927 44499"}, {"name": "STARLINK-35332", "line1": "1 65887U 25224F   26197.23053652  .00034979  00000+0  10410-2 0  9999", "line2": "2 65887  53.1578 131.5139 0001378 122.4340 237.6796 15.34415980 44573"}, {"name": "STARLINK-35362", "line1": "1 65888U 25224G   26198.15444507  .00011185  00000+0  38909-3 0  9993", "line2": "2 65888  53.1596 130.1681 0000993 100.9952 259.1160 15.30209676 44644"}, {"name": "STARLINK-35193", "line1": "1 65889U 25224H   26197.24954478 -.00003755  00000+0 -11480-3 0  9997", "line2": "2 65889  53.1579 134.4630 0000952  73.5060 286.6045 15.30174485 44531"}, {"name": "STARLINK-34542", "line1": "1 65890U 25224J   26197.24637211  .00007128  00000+0  25248-3 0  9995", "line2": "2 65890  53.1584 134.4553 0000677  90.0423 270.0655 15.30208259 44557"}, {"name": "STARLINK-34791", "line1": "1 65891U 25224K   26198.00002315 -.00026881  00000+0 -89791-3 0  9994", "line2": "2 65891  53.1571 131.0484 0001192  92.6204  49.0197 15.30229260  5780"}, {"name": "STARLINK-34853", "line1": "1 65892U 25224L   26197.84200801  .00015658  00000+0  47346-3 0  9994", "line2": "2 65892  53.1574 128.9359 0002183  85.7598 274.3654 15.34407870 44615"}, {"name": "STARLINK-34921", "line1": "1 65893U 25224M   26197.24320500  .00006801  00000+0  24150-3 0  9996", "line2": "2 65893  53.1577 134.4227 0001272 102.3528 257.7615 15.30202924 44556"}, {"name": "STARLINK-34672", "line1": "1 65894U 25224N   26197.23581766  .00006939  00000+0  24612-3 0  9994", "line2": "2 65894  53.1590 134.3779 0001255  81.6724 278.4419 15.30209290 44556"}, {"name": "STARLINK-34898", "line1": "1 65895U 25224P   26197.19485326  .00020648  00000+0  62049-3 0  9994", "line2": "2 65895  53.1576 131.9983 0001050  81.6703 278.4419 15.34403336 44585"}, {"name": "STARLINK-34906", "line1": "1 65896U 25224Q   26198.19497985  .00008569  00000+0  28754-3 0  9993", "line2": "2 65896  53.1600 128.9912 0001788  90.0250 270.0956 15.31704984 44710"}, {"name": "STARLINK-34934", "line1": "1 65897U 25224R   26197.24736240  .00005610  00000+0  17707-3 0  9999", "line2": "2 65897  53.1578 131.6114 0001321 108.8794 251.2352 15.34398074 44548"}, {"name": "STARLINK-34936", "line1": "1 65898U 25224S   26197.83990641  .00016660  00000+0  50316-3 0  9992", "line2": "2 65898  53.1582 128.9119 0001438  84.1067 276.0100 15.34396918 44682"}, {"name": "STARLINK-35272", "line1": "1 65899U 25224T   26197.23684487  .00008314  00000+0  25695-3 0  9994", "line2": "2 65899  53.1581 131.5459 0001362  93.8765 266.2393 15.34395347 44586"}, {"name": "STARLINK-35264", "line1": "1 65900U 25224U   26197.23263381  .00008311  00000+0  25679-3 0  9992", "line2": "2 65900  53.1583 131.5197 0001180  88.2029 271.9109 15.34405713 44586"}, {"name": "STARLINK-35249", "line1": "1 65901U 25224V   26197.23791375  .00012158  00000+0  42155-3 0  9994", "line2": "2 65901  53.1592 134.3870 0001281  88.6624 271.4524 15.30230339 44530"}, {"name": "STARLINK-35278", "line1": "1 65902U 25224W   26197.24850344  .00010722  00000+0  37364-3 0  9999", "line2": "2 65902  53.1583 134.4549 0001654 106.6084 253.5098 15.30197462 44558"}, {"name": "STARLINK-35210", "line1": "1 65903U 25224X   26197.84581281  .00011640  00000+0  40427-3 0  9991", "line2": "2 65903  53.1584 131.7803 0002791 103.1305 257.0007 15.30217903 44624"}, {"name": "STARLINK-35348", "line1": "1 65904U 25224Y   26197.82727815  .00012127  00000+0  36952-3 0  9994", "line2": "2 65904  53.1585 128.8312 0001538  95.2242 264.8936 15.34394957 44634"}, {"name": "STARLINK-35380", "line1": "1 65905U 25224Z   26197.81626565  .00007936  00000+0  27964-3 0  9999", "line2": "2 65905  53.1607 131.5967 0002297  99.7967 260.3293 15.30218987 44599"}, {"name": "STARLINK-35385", "line1": "1 65906U 25224AA  26197.83779647  .00013730  00000+0  41679-3 0  9990", "line2": "2 65906  53.1569 128.8972 0001753  93.0974 267.0229 15.34397756 44660"}, {"name": "STARLINK-35347", "line1": "1 65907U 25224AB  26197.83148425  .00010531  00000+0  32239-3 0  9993", "line2": "2 65907  53.1579 128.8566 0001632 104.8603 255.2581 15.34398035 44668"}, {"name": "STARLINK-35329", "line1": "1 65908U 25224AC  26197.51843194  .00006954  00000+0  21678-3 0  9993", "line2": "2 65908  53.1569 130.4596 0002092  80.5927 279.5312 15.34396096 44622"}, {"name": "STARLINK-35387", "line1": "1 65909U 25224AD  26197.51502940  .00010497  00000+0  36586-3 0  9996", "line2": "2 65909  53.1577 133.2726 0001209  87.3780 272.7359 15.30216342 44547"}]